EYESAT A (AO-27)        
1 22825U 93061C   26170.16751487  .00000072  00000+0  44294-4 0  9998
2 22825  98.6880 237.5804 0009541  94.6825 265.5447 14.30942746707289
ITAMSAT (IO-26)         
1 22826U 93061D   26170.42594851  .00000072  00000+0  44100-4 0  9994
2 22826  98.6829 237.7564 0010030  79.0744 281.1567 14.31369768707634
RADIO ROSTO (RS15)      
1 23439U 94085A   26170.59927559 -.00000036  00000+0  19508-3 0  9999
2 23439  64.8186 299.3149 0156010   3.4301 356.7657 11.27583459296176
JAS-2 (FO-29)           
1 24278U 96046B   26170.30734483 -.00000013  00000+0  19676-4 0  9993
2 24278  98.5238  18.8890 0350921  90.9460 273.1898 13.53274520473455
FORTE                   
1 24920U 97047A   26170.26635504  .00000117  00000+0  70249-4 0  9995
2 24920  69.9539   9.3247 0024629 274.8390  84.9919 14.27945867498982
TECHSAT 1B (GO-32)      
1 25397U 98043D   26170.59313746  .00000028  00000+0  32334-4 0  9992
2 25397  99.0068 163.4125 0001179 158.0468 202.0760 14.24428772451673
ISS (ZARYA)             
1 25544U 98067A   26170.51159304  .00008252  00000+0  15605-3 0  9990
2 25544  51.6332 288.5889 0004596 205.0015 155.0751 15.49315858572116
IMAGE                   
1 26113U 00017A   26162.34581823  .00000011  00000+0  22926-1 0  9995
2 26113  94.2241 315.2958 7436383 288.4674   8.8959  1.68665984161407
CLUSTER II-FM7 (SAMBA)  
1 26410U 00041A   26172.60119800  .00004700  00000+0  00000+0 0  9990
2 26410 149.9156  51.6296 9060156 268.8489 359.5243  0.44827446 20328
CLUSTER II-FM8 (TANGO)  
1 26464U 00045B   26168.43823291  .00013202  00000+0  00000+0 0  9992
2 26464 150.1515  52.0898 9060795 269.1034   2.6615  0.44409350 20310
ODIN                    
1 26702U 01007A   26170.57048921  .00168116  00000+0  10417-2 0  9994
2 26702  97.3813 211.6668 0006791 140.5519 219.6242 15.76539587389774
OMNI-M1                 
1 26857U 01026A   26167.20907279 -.00000001  00000+0  00000+0 0  9995
2 26857  44.8307 245.4893 0014194  53.4474 306.7446  3.92401638205538
PCSAT (NO-44)           
1 26931U 01043C   26170.46421187  .00000069  00000+0  56710-4 0  9995
2 26931  67.0503 238.3826 0006071 264.6525  95.3885 14.31956812290773
PROBA-1                 
1 26958U 01049B   26170.59260823  .00000861  00000+0  59330-4 0  9993
2 26958  97.9594 179.2094 0056452 113.9693 246.7459 15.07498751343982
SAUDISAT 1C (SO-50)     
1 27607U 02058C   26170.58285706  .00000730  00000+0  10364-3 0  9990
2 27607  64.5513 121.5728 0075166 262.0349  97.2222 14.83051246264814
CORIOLIS                
1 27640U 03001A   26170.59299289  .00000066  00000+0  51487-4 0  9992
2 27640  98.7125 177.4411 0013512 201.5448 158.5161 14.19945392214566
CUTE-1 (CO-55)          
1 27844U 03031E   26170.56610412  .00000202  00000+0  10624-3 0  9992
2 27844  98.6736 179.0951 0009689 171.1603 188.9749 14.24336935192018
CUBESAT XI-IV (CO-57)   
1 27848U 03031J   26170.48547204  .00000165  00000+0  91471-4 0  9993
2 27848  98.6765 178.7263 0009188 190.0962 170.0034 14.23621824191705
MOZHAETS 4 (RS22)       
1 27939U 03042A   26170.65891388  .00000484  00000+0  82899-4 0  9998
2 27939  98.3467 355.0870 0009920 260.7550 171.6812 14.73470070215919
